[{"OBJECT_NAME":"STARLINK-35142","OBJECT_ID":"2025-194A","EPOCH":"2026-03-09T13:19:58.831392","MEAN_MOTION":15.05636301,"ECCENTRICITY":0.00015538,"INCLINATION":97.602,"RA_OF_ASC_NODE":284.1856,"ARG_OF_PERICENTER":85.541,"MEAN_ANOMALY":274.5994,"EPHEMERIS_TYPE":0,"CLASSIFICATION_TYPE":"U","NORAD_CAT_ID":65434,"ELEMENT_SET_NO":999,"REV_AT_EPOCH":2962,"BSTAR":0.00050523621,"MEAN_MOTION_DOT":7.234e-5,"MEAN_MOTION_DDOT":0},{"OBJECT_NAME":"TITAN 4B R\/B","OBJECT_ID":"2000-047B","EPOCH":"2026-03-09T21:29:16.286496","MEAN_MOTION":15.09565128,"ECCENTRICITY":0.00386241,"INCLINATION":67.9901,"RA_OF_ASC_NODE":39.932,"ARG_OF_PERICENTER":35.1583,"MEAN_ANOMALY":325.2103,"EPHEMERIS_TYPE":0,"CLASSIFICATION_TYPE":"U","NORAD_CAT_ID":26474,"ELEMENT_SET_NO":999,"REV_AT_EPOCH":39294,"BSTAR":0.00034805691,"MEAN_MOTION_DOT":5.567e-5,"MEAN_MOTION_DDOT":0}]
